[
    {
        "CCSDS_OMM_VERS": "3.0",
        "COMMENT": "GENERATED VIA SPACE-TRACK.ORG API",
        "CREATION_DATE": "2025-05-02T17:35:09",
        "ORIGINATOR": "18 SPCS",
        "OBJECT_NAME": "GALILEO-FM2",
        "OBJECT_ID": "2011-060B",
        "CENTER_NAME": "EARTH",
        "REF_FRAME": "TEME",
        "TIME_SYSTEM": "UTC",
        "MEAN_ELEMENT_THEORY": "SGP4",
        "EPOCH": "2025-05-02T10:42:27.946656",
        "MEAN_MOTION": "1.70475877",
        "ECCENTRICITY": "0.00043910",
        "INCLINATION": "57.1013",
        "RA_OF_ASC_NODE": "352.8944",
        "ARG_OF_PERICENTER": "359.3736",
        "MEAN_ANOMALY": "173.1958",
        "EPHEMERIS_TYPE": "0",
        "CLASSIFICATION_TYPE": "U",
        "NORAD_CAT_ID": "37847",
        "ELEMENT_SET_NO": "999",
        "REV_AT_EPOCH": "8412",
        "BSTAR": "0.00000000000000",
        "MEAN_MOTION_DOT": "-0.00000100",
        "MEAN_MOTION_DDOT": "0.0000000000000",
        "SEMIMAJOR_AXIS": "29600.103",
        "PERIOD": "844.694",
        "APOAPSIS": "23234.965",
        "PERIAPSIS": "23208.970",
        "OBJECT_TYPE": "PAYLOAD",
        "RCS_SIZE": "LARGE",
        "COUNTRY_CODE": "ESA",
        "LAUNCH_DATE": "2011-10-21",
        "SITE": "FRGUI",
        "DECAY_DATE": null,
        "FILE": "4716995",
        "GP_ID": "286676387",
        "TLE_LINE0": "0 GALILEO-FM2",
        "TLE_LINE1": "1 37847U 11060B   25122.44615679 -.00000100  00000-0  00000-0 0  9993",
        "TLE_LINE2": "2 37847  57.1013 352.8944 0004391 359.3736 173.1958  1.70475877 84121"
    }
]